[{"OBJECT_NAME":"STARLINK-1624","OBJECT_ID":"2020-057P","EPOCH":"2026-03-10T00:00:02.999808","MEAN_MOTION":15.68159276,"ECCENTRICITY":0.00046049,"INCLINATION":53.0462,"RA_OF_ASC_NODE":230.801,"ARG_OF_PERICENTER":319.1645,"MEAN_ANOMALY":185.2819,"EPHEMERIS_TYPE":0,"CLASSIFICATION_TYPE":"U","NORAD_CAT_ID":46130,"ELEMENT_SET_NO":999,"REV_AT_EPOCH":580,"BSTAR":0.0011533861,"MEAN_MOTION_DOT":0.00132696,"MEAN_MOTION_DDOT":0},{"OBJECT_NAME":"STARLINK-11122 [DTC]","OBJECT_ID":"2024-112C","EPOCH":"2026-03-09T17:24:15.258240","MEAN_MOTION":15.69706436,"ECCENTRICITY":7.767e-5,"INCLINATION":53.1582,"RA_OF_ASC_NODE":266.3105,"ARG_OF_PERICENTER":77.0119,"MEAN_ANOMALY":283.0986,"EPHEMERIS_TYPE":0,"CLASSIFICATION_TYPE":"U","NORAD_CAT_ID":60040,"ELEMENT_SET_NO":999,"REV_AT_EPOCH":10098,"BSTAR":4.7332907e-5,"MEAN_MOTION_DOT":5.149e-5,"MEAN_MOTION_DDOT":0}]
